0 COSMOS 505
1 06118U 72057B   13281.18177698 -.00000024  00000-0 -48645-4 0  7682
2 06118 074.0308 007.4328 0091638 100.2285 311.9216 12.59744967895615
0 COSMOS 505
1 06118U 72057B   13283.49944892 -.00000017  00000-0 -74453-5 0  7696
2 06118 074.0308 004.2960 0091607 096.6488 022.7855 12.59744854895904
0 COSMOS 505
1 06118U 72057B   13285.65392056  .00000007  00000-0  13113-3 0  7708
2 06118 074.0306 001.3803 0091609 093.3229 073.5183 12.59744628896172
0 COSMOS 505
1 06118U 72057B   13288.09504615  .00000021  00000-0  20781-3 0  7711
2 06118 074.0301 358.0767 0091607 089.5502 344.2561 12.59744626896487
0 COSMOS 505
1 06118U 72057B   13290.14928044  .00000005  00000-0  11907-3 0  7729
2 06118 074.0297 355.2965 0091603 086.3730 300.4065 12.59744859896744
0 COSMOS 505
1 06118U 72057B   13292.54909697 -.00000014  00000-0  11729-4 0  7733
2 06118 074.0293 352.0482 0091618 082.6677 023.8017 12.59745066897042
0 COSMOS 505
1 06118U 72057B   13294.85459671 -.00000025  00000-0 -51923-4 0  7745
2 06118 074.0291 348.9277 0091615 079.1083 039.4625 12.59745113897338
